start=new Date('2021-10-25T00:00:00.000Z').valueOf();
sats=[{"OBJECT_TYPE":"PAYLOAD","MEAN_MOTION_DDOT":"0.0000000000000","SITE":"AFETR","FILE":"3182768","DECAY_DATE":null,"REF_FRAME":"TEME","SEMIMAJOR_AXIS":"6925.364","RA_OF_ASC_NODE":"270.9209","ELEMENT_SET_NO":"999","ECCENTRICITY":"0.00014780","INCLINATION":"53.0549","OBJECT_NAME":"STARLINK-1877","TLE_LINE1":"1 47162U 20088AS  21297.66715984 -.00000612  00000-0 -22170-4 0  9992","RCS_SIZE":"LARGE","PERIOD":"95.592","NORAD_CAT_ID":"47162","PERIAPSIS":"546.205","REV_AT_EPOCH":"5113","EPOCH":"2021-10-24T16:00:42.610176","MEAN_MOTION":"15.06394955","TIME_SYSTEM":"UTC","ARG_OF_PERICENTER":"68.7335","MEAN_MOTION_DOT":"-0.00000612","GP_ID":"188106216","MEAN_ANOMALY":"291.3812","COUNTRY_CODE":"US","CLASSIFICATION_TYPE":"U","TLE_LINE2":"2 47162  53.0549 270.9209 0001478  68.7335 291.3812 15.06394955 51132","OBJECT_ID":"2020-088AS","MEAN_ELEMENT_THEORY":"SGP4","EPHEMERIS_TYPE":"0","CENTER_NAME":"EARTH","APOAPSIS":"548.253","BSTAR":"-0.00002217000000","LAUNCH_DATE":"2020-11-25"},{"EPOCH":"2021-10-24T10:24:59.284800","MEAN_MOTION":"15.06398929","REV_AT_EPOCH":"5095","APOAPSIS":"548.327","BSTAR":"0.00002353200000","LAUNCH_DATE":"2020-11-25","TIME_SYSTEM":"UTC","ARG_OF_PERICENTER":"69.9363","MEAN_MOTION_DOT":"0.00000069","GP_ID":"188069887","COUNTRY_CODE":"US","MEAN_ANOMALY":"290.1798","CLASSIFICATION_TYPE":"U","TLE_LINE2":"2 47163  53.0544 282.1076 0001603  69.9363 290.1798 15.06398929 50953","OBJECT_ID":"2020-088AT","MEAN_ELEMENT_THEORY":"SGP4","EPHEMERIS_TYPE":"0","CENTER_NAME":"EARTH","MEAN_MOTION_DDOT":"0.0000000000000","SITE":"AFETR","FILE":"3182197","REF_FRAME":"TEME","DECAY_DATE":null,"SEMIMAJOR_AXIS":"6925.352","ELEMENT_SET_NO":"999","RA_OF_ASC_NODE":"282.1076","ECCENTRICITY":"0.00016030","OBJECT_TYPE":"PAYLOAD","RCS_SIZE":"LARGE","PERIOD":"95.592","NORAD_CAT_ID":"47163","PERIAPSIS":"546.107","INCLINATION":"53.0544","OBJECT_NAME":"STARLINK-1878","TLE_LINE1":"1 47163U 20088AT  21297.43401950  .00000069  00000-0  23532-4 0  9990"},{"REV_AT_EPOCH":"5161","MEAN_MOTION":"15.06398166","EPOCH":"2021-10-24T08:32:11.866560","EPHEMERIS_TYPE":"0","CENTER_NAME":"EARTH","TLE_LINE2":"2 47164  53.0549 252.3193 0001533  72.6215 287.4942 15.06398166 51614","OBJECT_ID":"2020-088AU","MEAN_ELEMENT_THEORY":"SGP4","ARG_OF_PERICENTER":"72.6215","MEAN_MOTION_DOT":"-0.00000376","GP_ID":"188079020","CLASSIFICATION_TYPE":"U","COUNTRY_CODE":"US","MEAN_ANOMALY":"287.4942","TIME_SYSTEM":"UTC","LAUNCH_DATE":"2020-11-25","BSTAR":"-0.00000634360000","APOAPSIS":"548.281","OBJECT_TYPE":"PAYLOAD","ECCENTRICITY":"0.00015330","SEMIMAJOR_AXIS":"6925.354","RA_OF_ASC_NODE":"252.3193","ELEMENT_SET_NO":"999","FILE":"3182546","REF_FRAME":"TEME","DECAY_DATE":null,"MEAN_MOTION_DDOT":"0.0000000000000","SITE":"AFETR","TLE_LINE1":"1 47164U 20088AU  21297.35569290 -.00000376  00000-0 -63436-5 0  9995","OBJECT_NAME":"STARLINK-1879","INCLINATION":"53.0549","PERIAPSIS":"546.158","PERIOD":"95.592","NORAD_CAT_ID":"47164","RCS_SIZE":"LARGE"},{"TLE_LINE1":"1 47165U 20088AV  21297.62662095 -.00000158  00000-0  82689-5 0  9991","OBJECT_NAME":"STARLINK-1880","INCLINATION":"53.0539","PERIAPSIS":"546.036","NORAD_CAT_ID":"47165","PERIOD":"95.592","RCS_SIZE":"LARGE","OBJECT_TYPE":"PAYLOAD","ECCENTRICITY":"0.00017230","SEMIMAJOR_AXIS":"6925.365","RA_OF_ASC_NODE":"271.1143","ELEMENT_SET_NO":"999","DECAY_DATE":null,"REF_FRAME":"TEME","FILE":"3182768","SITE":"AFETR","MEAN_MOTION_DDOT":"0.0000000000000","CENTER_NAME":"EARTH","EPHEMERIS_TYPE":"0","MEAN_ELEMENT_THEORY":"SGP4","OBJECT_ID":"2020-088AV","TLE_LINE2":"2 47165  53.0539 271.1143 0001723  65.0990 295.0178 15.06394757 51129","GP_ID":"188105465","MEAN_ANOMALY":"295.0178","COUNTRY_CODE":"US","CLASSIFICATION_TYPE":"U","MEAN_MOTION_DOT":"-0.00000158","ARG_OF_PERICENTER":"65.0990","TIME_SYSTEM":"UTC","LAUNCH_DATE":"2020-11-25","BSTAR":"0.00000826890000","APOAPSIS":"548.423","REV_AT_EPOCH":"5112","MEAN_MOTION":"15.06394757","EPOCH":"2021-10-24T15:02:20.050080"},{"OBJECT_TYPE":"PAYLOAD","ECCENTRICITY":"0.00011480","SEMIMAJOR_AXIS":"6853.969","RA_OF_ASC_NODE":"234.1527","ELEMENT_SET_NO":"999","FILE":"3182768","DECAY_DATE":null,"REF_FRAME":"TEME","MEAN_MOTION_DDOT":"0.0000000000000","SITE":"AFETR","TLE_LINE1":"1 47166U 20088AW  21297.80057355  .00017791  00000-0  61522-3 0  9990","OBJECT_NAME":"STARLINK-1881","INCLINATION":"53.0490","PERIAPSIS":"475.047","PERIOD":"94.118","NORAD_CAT_ID":"47166","RCS_SIZE":"LARGE","REV_AT_EPOCH":"5166","MEAN_MOTION":"15.29993401","EPOCH":"2021-10-24T19:12:49.554720","EPHEMERIS_TYPE":"0","CENTER_NAME":"EARTH","TLE_LINE2":"2 47166  53.0490 234.1527 0001148  68.6134 291.4988 15.29993401 51665","MEAN_ELEMENT_THEORY":"SGP4","OBJECT_ID":"2020-088AW","ARG_OF_PERICENTER":"68.6134","MEAN_MOTION_DOT":"0.00017791","COUNTRY_CODE":"US","GP_ID":"188105716","CLASSIFICATION_TYPE":"U","MEAN_ANOMALY":"291.4988","TIME_SYSTEM":"UTC","LAUNCH_DATE":"2020-11-25","BSTAR":"0.00061522000000","APOAPSIS":"476.621"},{"REV_AT_EPOCH":"5108","MEAN_MOTION":"15.06400806","EPOCH":"2021-10-24T08:18:55.116864","TLE_LINE2":"2 47167  53.0532 272.3826 0006327 328.6611  31.4000 15.06400806 51082","OBJECT_ID":"2020-088AX","MEAN_ELEMENT_THEORY":"SGP4","EPHEMERIS_TYPE":"0","CENTER_NAME":"EARTH","TIME_SYSTEM":"UTC","MEAN_MOTION_DOT":"-0.00000673","ARG_OF_PERICENTER":"328.6611","GP_ID":"188069387","COUNTRY_CODE":"US","CLASSIFICATION_TYPE":"U","MEAN_ANOMALY":"31.4000","LAUNCH_DATE":"2020-11-25","APOAPSIS":"551.593","BSTAR":"-0.00002616900000","OBJECT_TYPE":"PAYLOAD","RA_OF_ASC_NODE":"272.3826","SEMIMAJOR_AXIS":"6925.346","ELEMENT_SET_NO":"999","ECCENTRICITY":"0.00063270","MEAN_MOTION_DDOT":"0.0000000000000","SITE":"AFETR","FILE":"3182197","DECAY_DATE":null,"REF_FRAME":"TEME","TLE_LINE1":"1 47167U 20088AX  21297.34647126 -.00000673  00000-0 -26169-4 0  9993","INCLINATION":"53.0532","OBJECT_NAME":"STARLINK-1884","PERIOD":"95.592","NORAD_CAT_ID":"47167","PERIAPSIS":"542.829","RCS_SIZE":"LARGE"},{"FILE":"3182197","DECAY_DATE":null,"REF_FRAME":"TEME","MEAN_MOTION_DDOT":"0.0000000000000","SITE":"AFETR","ECCENTRICITY":"0.00014720","RA_OF_ASC_NODE":"272.3904","SEMIMAJOR_AXIS":"6925.341","ELEMENT_SET_NO":"999","OBJECT_TYPE":"PAYLOAD","RCS_SIZE":"LARGE","PERIAPSIS":"546.187","PERIOD":"95.592","NORAD_CAT_ID":"47168","OBJECT_NAME":"STARLINK-1885","INCLINATION":"53.0541","TLE_LINE1":"1 47168U 20088AY  21297.34279371 -.00000353  00000-0 -47678-5 0  9991","EPOCH":"2021-10-24T08:13:37.376544","MEAN_MOTION":"15.06402460","REV_AT_EPOCH":"5108","BSTAR":"-0.00000476780000","APOAPSIS":"548.225","LAUNCH_DATE":"2020-11-25","ARG_OF_PERICENTER":"73.7646","MEAN_MOTION_DOT":"-0.00000353","GP_ID":"188069637","COUNTRY_CODE":"US","CLASSIFICATION_TYPE":"U","MEAN_ANOMALY":"286.3505","TIME_SYSTEM":"UTC","EPHEMERIS_TYPE":"0","CENTER_NAME":"EARTH","TLE_LINE2":"2 47168  53.0541 272.3904 0001472  73.7646 286.3505 15.06402460 51081","OBJECT_ID":"2020-088AY","MEAN_ELEMENT_THEORY":"SGP4"},{"TIME_SYSTEM":"UTC","COUNTRY_CODE":"US","GP_ID":"188104965","MEAN_ANOMALY":"297.2785","CLASSIFICATION_TYPE":"U","ARG_OF_PERICENTER":"62.8372","MEAN_MOTION_DOT":"0.00001233","OBJECT_ID":"2020-088BA","MEAN_ELEMENT_THEORY":"SGP4","TLE_LINE2":"2 47170  53.0538 270.9553 0001652  62.8372 297.2785 15.06393187 51131","CENTER_NAME":"EARTH","EPHEMERIS_TYPE":"0","APOAPSIS":"548.379","BSTAR":"0.00010169000000","LAUNCH_DATE":"2020-11-25","REV_AT_EPOCH":"5113","EPOCH":"2021-10-24T15:55:25.277664","MEAN_MOTION":"15.06393187","INCLINATION":"53.0538","OBJECT_NAME":"STARLINK-1887","TLE_LINE1":"1 47170U 20088BA  21297.66348701  .00001233  00000-0  10169-3 0  9992","RCS_SIZE":"LARGE","NORAD_CAT_ID":"47170","PERIOD":"95.593","PERIAPSIS":"546.090","OBJECT_TYPE":"PAYLOAD","SITE":"AFETR","MEAN_MOTION_DDOT":"0.0000000000000","DECAY_DATE":null,"REF_FRAME":"TEME","FILE":"3182768","SEMIMAJOR_AXIS":"6925.369","RA_OF_ASC_NODE":"270.9553","ELEMENT_SET_NO":"999","ECCENTRICITY":"0.00016520"},{"MEAN_MOTION":"15.06401076","EPOCH":"2021-10-24T14:47:43.345824","REV_AT_EPOCH":"5126","LAUNCH_DATE":"2020-11-25","APOAPSIS":"548.234","BSTAR":"0.00012123000000","TLE_LINE2":"2 47171  53.0554 261.1620 0001478  68.5174 291.5972 15.06401076 51262","OBJECT_ID":"2020-088BB","MEAN_ELEMENT_THEORY":"SGP4","EPHEMERIS_TYPE":"0","CENTER_NAME":"EARTH","TIME_SYSTEM":"UTC","ARG_OF_PERICENTER":"68.5174","MEAN_MOTION_DOT":"0.00001525","MEAN_ANOMALY":"291.5972","GP_ID":"188106217","COUNTRY_CODE":"US","CLASSIFICATION_TYPE":"U","SEMIMAJOR_AXIS":"6925.345","RA_OF_ASC_NODE":"261.1620","ELEMENT_SET_NO":"999","ECCENTRICITY":"0.00014780","MEAN_MOTION_DDOT":"0.0000000000000","SITE":"AFETR","FILE":"3182768","REF_FRAME":"TEME","DECAY_DATE":null,"OBJECT_TYPE":"PAYLOAD","PERIOD":"95.592","NORAD_CAT_ID":"47171","PERIAPSIS":"546.187","RCS_SIZE":"LARGE","TLE_LINE1":"1 47171U 20088BB  21297.61647391  .00001525  00000-0  12123-3 0  9991","INCLINATION":"53.0554","OBJECT_NAME":"STARLINK-1888"},{"OBJECT_TYPE":"PAYLOAD","MEAN_MOTION_DDOT":"0.0000000000000","SITE":"AFETR","FILE":"3182768","REF_FRAME":"TEME","DECAY_DATE":null,"SEMIMAJOR_AXIS":"6777.488","ELEMENT_SET_NO":"999","RA_OF_ASC_NODE":"261.8638","ECCENTRICITY":"0.00021040","INCLINATION":"53.0552","OBJECT_NAME":"STARLINK-1889","TLE_LINE1":"1 47172U 20088BC  21297.60367779  .00043783  00000-0  62252-3 0  9990","RCS_SIZE":"LARGE","PERIOD":"92.547","NORAD_CAT_ID":"47172","PERIAPSIS":"397.927","REV_AT_EPOCH":"5125","EPOCH":"2021-10-24T14:29:17.761056","MEAN_MOTION":"15.55964227","TIME_SYSTEM":"UTC","MEAN_MOTION_DOT":"0.00043783","ARG_OF_PERICENTER":"68.4781","COUNTRY_CODE":"US","GP_ID":"188106468","CLASSIFICATION_TYPE":"U","MEAN_ANOMALY":"291.6454","TLE_LINE2":"2 47172  53.0552 261.8638 0002104  68.4781 291.6454 15.55964227 51258","MEAN_ELEMENT_THEORY":"SGP4","OBJECT_ID":"2020-088BC","EPHEMERIS_TYPE":"0","CENTER_NAME":"EARTH","APOAPSIS":"400.779","BSTAR":"0.00062252000000","LAUNCH_DATE":"2020-11-25"}];
